{
  "norad_id": 59010,
  "name": "STARLINK-31528",
  "history": [
    {
      "epoch": "2026-03-28T22:17:16.461600Z",
      "apogee_km": 475.22066255851314,
      "perigee_km": 475.14842854942435,
      "latitude_deg": 2.1890433269843934e-05,
      "longitude_deg": -171.52354140310814,
      "height_km": 476.1184279470935,
      "semi_major_axis_km": 6853.3215455539685,
      "eccentricity": 5.27e-06,
      "inclination_deg": 53.1608,
      "raan_deg": 349.1371,
      "arg_perigee_deg": 160.8144,
      "mean_anomaly_deg": 199.2859,
      "mean_motion_rev_day": 15.30210223
    },
    {
      "epoch": "2026-03-28T23:51:19.814112Z",
      "apogee_km": 475.52918208505616,
      "perigee_km": 474.99187571878974,
      "latitude_deg": 2.5665422411236187e-05,
      "longitude_deg": 164.5915136250118,
      "height_km": 476.0264961345351,
      "semi_major_axis_km": 6853.397528901923,
      "eccentricity": 3.92e-05,
      "inclination_deg": 53.1607,
      "raan_deg": 348.8305,
      "arg_perigee_deg": 60.23,
      "mean_anomaly_deg": 299.874,
      "mean_motion_rev_day": 15.30184775
    },
    {
      "epoch": "2026-03-30T02:30:15.204096Z",
      "apogee_km": 475.6371153495302,
      "perigee_km": 474.96698607915187,
      "latitude_deg": 1.3305857713013405e-05,
      "longitude_deg": 118.61288942399044,
      "height_km": 475.96089296942813,
      "semi_major_axis_km": 6853.439050714341,
      "eccentricity": 4.889e-05,
      "inclination_deg": 53.162,
      "raan_deg": 343.6771,
      "arg_perigee_deg": 316.109,
      "mean_anomaly_deg": 43.9872,
      "mean_motion_rev_day": 15.30170869
    }
  ]
}